METEOSAT-11 (MSG-4)     
1 40732U 15034A   26065.22684189  .00000057  00000+0  00000+0 0  9998
2 40732   2.9422  71.6698 0001806 270.7557 272.5461  1.00266672  6184
ELEKTRO-L 2             
1 41105U 15074A   26065.29348885 -.00000120  00000+0  00000+0 0  9996
2 41105   6.4359  71.7901 0003316 241.1196 302.2488  1.00271019 37471
INSAT-3DR               
1 41752U 16054A   26065.16842830 -.00000082  00000+0  00000+0 0  9995
2 41752   0.0518  95.4837 0013110 186.5629  16.4609  1.00272637 34780
HIMAWARI-9              
1 41836U 16064A   26065.25292867 -.00000280  00000+0  00000+0 0  9998
2 41836   0.0134 170.3477 0001232 206.0634  19.3943  1.00271854 34172
GOES 16                 
1 41866U 16071A   26065.20430845 -.00000096  00000+0  00000+0 0  9999
2 41866   0.1424  89.5183 0002414 221.6288 181.6256  1.00271914 34070
FENGYUN 4A              
1 41882U 16077A   26065.24954866 -.00000361  00000+0  00000+0 0  9996
2 41882   2.0608  81.3938 0007319 135.3159 160.7109  1.00278417 33897
CYGFM05                 
1 41884U 16078A   26064.84108394  .00028028  00000+0  45092-3 0  9994
2 41884  34.9570 222.5928 0007091 253.3026 106.6918 15.51951186512666
CYGFM04                 
1 41885U 16078B   26064.70620458  .00033317  00000+0  47322-3 0  9995
2 41885  34.9332 195.6941 0006087 285.4912  74.5139 15.55346622512847
CYGFM02                 
1 41886U 16078C   26064.67728574  .00057935  00000+0  75308-3 0  9997
2 41886  34.9415 192.8729 0007158 287.1456  72.8484 15.57615372512987
CYGFM01                 
1 41887U 16078D   26064.86935391  .00028537  00000+0  45186-3 0  9993
2 41887  34.9401 224.2134 0006766 245.4313 114.5705 15.52390868512611
CYGFM08                 
1 41888U 16078E   26064.72461389  .00030834  00000+0  46235-3 0  9999
2 41888  34.9433 207.0772 0008209 268.6297  91.3486 15.53865746512831
CYGFM07                 
1 41890U 16078G   26064.75716583  .00031360  00000+0  45859-3 0  9990
2 41890  34.9456 195.3350 0006685 288.6119  71.3879 15.54561281512866
CYGFM03                 
1 41891U 16078H   26064.72825959  .00031028  00000+0  45360-3 0  9994
2 41891  34.9409 197.5030 0005934 274.4510  85.5535 15.54576233512834
FENGYUN 3D              
1 43010U 17072A   26065.32377819  .00000588  00000+0  29998-3 0  9994
2 43010  99.0026  37.9451 0001746  19.5822 340.5420 14.19715576430393
NOAA 20 (JPSS-1)        
1 43013U 17073A   26065.30413478  .00000124  00000+0  79552-4 0  9996
2 43013  98.7689   5.7250 0001061 141.7646 218.3606 14.19535050429875
GOES 17                 
1 43226U 18022A   26065.17822755 -.00000187  00000+0  00000+0 0  9991
2 43226   0.6726  87.5170 0002145 224.8372 186.1889  1.00270210 29395
FENGYUN 2H              
1 43491U 18050A   26065.10322527 -.00000132  00000+0  00000+0 0  9991
2 43491   2.7651  80.3398 0001756 174.9728  24.7479  1.00272682 28407
