[{"OBJECT_NAME":"METEOSAT-11 (MSG-4)","OBJECT_ID":"2015-034A","EPOCH":"2026-03-06T05:26:39.139296","MEAN_MOTION":1.00266672,"ECCENTRICITY":0.00018062,"INCLINATION":2.9422,"RA_OF_ASC_NODE":71.6698,"ARG_OF_PERICENTER":270.7557,"MEAN_ANOMALY":272.5461,"EPHEMERIS_TYPE":0,"CLASSIFICATION_TYPE":"U","NORAD_CAT_ID":40732,"ELEMENT_SET_NO":999,"REV_AT_EPOCH":618,"BSTAR":0,"MEAN_MOTION_DOT":5.7e-7,"MEAN_MOTION_DDOT":0},{"OBJECT_NAME":"ELEKTRO-L 2","OBJECT_ID":"2015-074A","EPOCH":"2026-03-06T07:02:37.436640","MEAN_MOTION":1.00271019,"ECCENTRICITY":0.00033164,"INCLINATION":6.4359,"RA_OF_ASC_NODE":71.7901,"ARG_OF_PERICENTER":241.1196,"MEAN_ANOMALY":302.2488,"EPHEMERIS_TYPE":0,"CLASSIFICATION_TYPE":"U","NORAD_CAT_ID":41105,"ELEMENT_SET_NO":999,"REV_AT_EPOCH":3747,"BSTAR":0,"MEAN_MOTION_DOT":-1.2e-6,"MEAN_MOTION_DDOT":0},{"OBJECT_NAME":"INSAT-3DR","OBJECT_ID":"2016-054A","EPOCH":"2026-03-06T04:02:32.205120","MEAN_MOTION":1.00272637,"ECCENTRICITY":0.00131101,"INCLINATION":0.0518,"RA_OF_ASC_NODE":95.4837,"ARG_OF_PERICENTER":186.5629,"MEAN_ANOMALY":16.4609,"EPHEMERIS_TYPE":0,"CLASSIFICATION_TYPE":"U","NORAD_CAT_ID":41752,"ELEMENT_SET_NO":999,"REV_AT_EPOCH":3478,"BSTAR":0,"MEAN_MOTION_DOT":-8.2e-7,"MEAN_MOTION_DDOT":0},{"OBJECT_NAME":"HIMAWARI-9","OBJECT_ID":"2016-064A","EPOCH":"2026-03-06T06:04:13.037088","MEAN_MOTION":1.00271854,"ECCENTRICITY":0.00012324,"INCLINATION":0.0134,"RA_OF_ASC_NODE":170.3477,"ARG_OF_PERICENTER":206.0634,"MEAN_ANOMALY":19.3943,"EPHEMERIS_TYPE":0,"CLASSIFICATION_TYPE":"U","NORAD_CAT_ID":41836,"ELEMENT_SET_NO":999,"REV_AT_EPOCH":3417,"BSTAR":0,"MEAN_MOTION_DOT":-2.8e-6,"MEAN_MOTION_DDOT":0},{"OBJECT_NAME":"GOES 16","OBJECT_ID":"2016-071A","EPOCH":"2026-03-06T04:54:12.250080","MEAN_MOTION":1.00271914,"ECCENTRICITY":0.0002414,"INCLINATION":0.1424,"RA_OF_ASC_NODE":89.5183,"ARG_OF_PERICENTER":221.6288,"MEAN_ANOMALY":181.6256,"EPHEMERIS_TYPE":0,"CLASSIFICATION_TYPE":"U","NORAD_CAT_ID":41866,"ELEMENT_SET_NO":999,"REV_AT_EPOCH":3407,"BSTAR":0,"MEAN_MOTION_DOT":-9.6e-7,"MEAN_MOTION_DDOT":0},{"OBJECT_NAME":"FENGYUN 4A","OBJECT_ID":"2016-077A","EPOCH":"2026-03-06T05:59:21.004224","MEAN_MOTION":1.00278417,"ECCENTRICITY":0.00073193,"INCLINATION":2.0608,"RA_OF_ASC_NODE":81.3938,"ARG_OF_PERICENTER":135.3159,"MEAN_ANOMALY":160.7109,"EPHEMERIS_TYPE":0,"CLASSIFICATION_TYPE":"U","NORAD_CAT_ID":41882,"ELEMENT_SET_NO":999,"REV_AT_EPOCH":3389,"BSTAR":0,"MEAN_MOTION_DOT":-3.61e-6,"MEAN_MOTION_DDOT":0},{"OBJECT_NAME":"CYGFM05","OBJECT_ID":"2016-078A","EPOCH":"2026-03-05T20:11:09.652416","MEAN_MOTION":15.51951186,"ECCENTRICITY":0.00070916,"INCLINATION":34.957,"RA_OF_ASC_NODE":222.5928,"ARG_OF_PERICENTER":253.3026,"MEAN_ANOMALY":106.6918,"EPHEMERIS_TYPE":0,"CLASSIFICATION_TYPE":"U","NORAD_CAT_ID":41884,"ELEMENT_SET_NO":999,"REV_AT_EPOCH":51266,"BSTAR":0.00045091609,"MEAN_MOTION_DOT":0.00028028,"MEAN_MOTION_DDOT":0},{"OBJECT_NAME":"CYGFM04","OBJECT_ID":"2016-078B","EPOCH":"2026-03-05T16:56:56.075712","MEAN_MOTION":15.55346622,"ECCENTRICITY":0.00060879,"INCLINATION":34.9332,"RA_OF_ASC_NODE":195.6941,"ARG_OF_PERICENTER":285.4912,"MEAN_ANOMALY":74.5139,"EPHEMERIS_TYPE":0,"CLASSIFICATION_TYPE":"U","NORAD_CAT_ID":41885,"ELEMENT_SET_NO":999,"REV_AT_EPOCH":51284,"BSTAR":0.00047321961,"MEAN_MOTION_DOT":0.00033317,"MEAN_MOTION_DDOT":0},{"OBJECT_NAME":"CYGFM02","OBJECT_ID":"2016-078C","EPOCH":"2026-03-05T16:15:17.487936","MEAN_MOTION":15.57615372,"ECCENTRICITY":0.00071586,"INCLINATION":34.9415,"RA_OF_ASC_NODE":192.8729,"ARG_OF_PERICENTER":287.1456,"MEAN_ANOMALY":72.8484,"EPHEMERIS_TYPE":0,"CLASSIFICATION_TYPE":"U","NORAD_CAT_ID":41886,"ELEMENT_SET_NO":999,"REV_AT_EPOCH":51298,"BSTAR":0.00075308369,"MEAN_MOTION_DOT":0.00057935,"MEAN_MOTION_DDOT":0},{"OBJECT_NAME":"CYGFM01","OBJECT_ID":"2016-078D","EPOCH":"2026-03-05T20:51:52.177824","MEAN_MOTION":15.52390868,"ECCENTRICITY":0.00067662,"INCLINATION":34.9401,"RA_OF_ASC_NODE":224.2134,"ARG_OF_PERICENTER":245.4313,"MEAN_ANOMALY":114.5705,"EPHEMERIS_TYPE":0,"CLASSIFICATION_TYPE":"U","NORAD_CAT_ID":41887,"ELEMENT_SET_NO":999,"REV_AT_EPOCH":51261,"BSTAR":0.00045186017,"MEAN_MOTION_DOT":0.00028537,"MEAN_MOTION_DDOT":0},{"OBJECT_NAME":"CYGFM08","OBJECT_ID":"2016-078E","EPOCH":"2026-03-05T17:23:26.640096","MEAN_MOTION":15.53865746,"ECCENTRICITY":0.00082093,"INCLINATION":34.9433,"RA_OF_ASC_NODE":207.0772,"ARG_OF_PERICENTER":268.6297,"MEAN_ANOMALY":91.3486,"EPHEMERIS_TYPE":0,"CLASSIFICATION_TYPE":"U","NORAD_CAT_ID":41888,"ELEMENT_SET_NO":999,"REV_AT_EPOCH":51283,"BSTAR":0.00046234804,"MEAN_MOTION_DOT":0.00030834,"MEAN_MOTION_DDOT":0},{"OBJECT_NAME":"CYGFM07","OBJECT_ID":"2016-078G","EPOCH":"2026-03-05T18:10:19.127712","MEAN_MOTION":15.54561281,"ECCENTRICITY":0.00066855,"INCLINATION":34.9456,"RA_OF_ASC_NODE":195.335,"ARG_OF_PERICENTER":288.6119,"MEAN_ANOMALY":71.3879,"EPHEMERIS_TYPE":0,"CLASSIFICATION_TYPE":"U","NORAD_CAT_ID":41890,"ELEMENT_SET_NO":999,"REV_AT_EPOCH":51286,"BSTAR":0.00045859355,"MEAN_MOTION_DOT":0.0003136,"MEAN_MOTION_DDOT":0},{"OBJECT_NAME":"CYGFM03","OBJECT_ID":"2016-078H","EPOCH":"2026-03-05T17:28:41.628576","MEAN_MOTION":15.54576233,"ECCENTRICITY":0.00059348,"INCLINATION":34.9409,"RA_OF_ASC_NODE":197.503,"ARG_OF_PERICENTER":274.451,"MEAN_ANOMALY":85.5535,"EPHEMERIS_TYPE":0,"CLASSIFICATION_TYPE":"U","NORAD_CAT_ID":41891,"ELEMENT_SET_NO":999,"REV_AT_EPOCH":51283,"BSTAR":0.00045360156,"MEAN_MOTION_DOT":0.00031028,"MEAN_MOTION_DDOT":0},{"OBJECT_NAME":"FENGYUN 3D","OBJECT_ID":"2017-072A","EPOCH":"2026-03-06T07:46:14.435616","MEAN_MOTION":14.19715576,"ECCENTRICITY":0.00017464,"INCLINATION":99.0026,"RA_OF_ASC_NODE":37.9451,"ARG_OF_PERICENTER":19.5822,"MEAN_ANOMALY":340.542,"EPHEMERIS_TYPE":0,"CLASSIFICATION_TYPE":"U","NORAD_CAT_ID":43010,"ELEMENT_SET_NO":999,"REV_AT_EPOCH":43039,"BSTAR":0.00029998459,"MEAN_MOTION_DOT":5.88e-6,"MEAN_MOTION_DDOT":0},{"OBJECT_NAME":"NOAA 20 (JPSS-1)","OBJECT_ID":"2017-073A","EPOCH":"2026-03-06T07:17:57.244992","MEAN_MOTION":14.1953505,"ECCENTRICITY":0.00010619,"INCLINATION":98.7689,"RA_OF_ASC_NODE":5.725,"ARG_OF_PERICENTER":141.7646,"MEAN_ANOMALY":218.3606,"EPHEMERIS_TYPE":0,"CLASSIFICATION_TYPE":"U","NORAD_CAT_ID":43013,"ELEMENT_SET_NO":999,"REV_AT_EPOCH":42987,"BSTAR":7.955203e-5,"MEAN_MOTION_DOT":1.24e-6,"MEAN_MOTION_DDOT":0},{"OBJECT_NAME":"GOES 17","OBJECT_ID":"2018-022A","EPOCH":"2026-03-06T04:16:38.860320","MEAN_MOTION":1.0027021,"ECCENTRICITY":0.00021454,"INCLINATION":0.6726,"RA_OF_ASC_NODE":87.517,"ARG_OF_PERICENTER":224.8372,"MEAN_ANOMALY":186.1889,"EPHEMERIS_TYPE":0,"CLASSIFICATION_TYPE":"U","NORAD_CAT_ID":43226,"ELEMENT_SET_NO":999,"REV_AT_EPOCH":2939,"BSTAR":0,"MEAN_MOTION_DOT":-1.87e-6,"MEAN_MOTION_DDOT":0},{"OBJECT_NAME":"FENGYUN 2H","OBJECT_ID":"2018-050A","EPOCH":"2026-03-06T02:28:38.663328","MEAN_MOTION":1.00272682,"ECCENTRICITY":0.00017566,"INCLINATION":2.7651,"RA_OF_ASC_NODE":80.3398,"ARG_OF_PERICENTER":174.9728,"MEAN_ANOMALY":24.7479,"EPHEMERIS_TYPE":0,"CLASSIFICATION_TYPE":"U","NORAD_CAT_ID":43491,"ELEMENT_SET_NO":999,"REV_AT_EPOCH":2840,"BSTAR":0,"MEAN_MOTION_DOT":-1.32e-6,"MEAN_MOTION_DDOT":0}]
